      2.10          N: GNSS NAV DATA                        RINEX VERSION / TYPE
fic2rin                                 12/30/2019 00:20:11 PGM / RUN BY / DATE
                                                            END OF HEADER
26 19 12 29 10  0  0.0 1.159114763141e-04 8.071765478235e-12 0.000000000000e+00
    3.000000000000e+01 7.471875000000e+01 4.462328731046e-09 1.400238596369e+00
    3.950670361519e-06 4.453905159608e-03 1.004151999950e-05 5.153727773666e+03
    3.600000000000e+04 1.303851604462e-08-2.708681020168e+00 2.607703208923e-08
    9.490540130976e-01 1.792500000000e+02 1.494738244476e-01-7.925330121811e-09
   -2.853690296227e-10 1.000000000000e+00 2.086000000000e+03 0.000000000000e+00
    2.400000000000e+00 0.000000000000e+00 7.450580596924e-09 3.000000000000e+01
    2.880000000000e+04 4.000000000000e+00
28 19 12 29 10  0  0.0 7.481905631721e-04-1.932676241267e-12 0.000000000000e+00
    2.700000000000e+01 6.781250000000e+01 3.860517948925e-09 2.836288646121e-01
    3.539025783539e-06 1.894979330245e-02 1.063570380211e-05 5.153714107513e+03
    3.600000000000e+04-2.607703208923e-07-2.586459577703e+00-2.011656761169e-07
    9.797560846479e-01 1.872812500000e+02-1.424415387658e+00-7.959974422028e-09
   -1.989368579472e-10 1.000000000000e+00 2.086000000000e+03 0.000000000000e+00
    2.400000000000e+00 0.000000000000e+00-1.117587089539e-08 2.700000000000e+01
    2.880000000000e+04 4.000000000000e+00
30 19 12 29 10  0  0.0-1.168502494693e-04-8.753886504564e-12 0.000000000000e+00
    1.010000000000e+02-9.468750000000e+00 5.199502294427e-09 2.935643379936e+00
   -5.438923835754e-07 4.162023426034e-03 6.742775440216e-06 5.153702375412e+03
    3.600000000000e+04-3.725290298462e-08 2.595659573994e+00-3.166496753693e-08
    9.394564805219e-01 2.383125000000e+02-2.927017129875e+00-8.211770624636e-09
   -4.075169747177e-10 1.000000000000e+00 2.086000000000e+03 0.000000000000e+00
    2.400000000000e+00 0.000000000000e+00 3.725290298462e-09 1.010000000000e+02
    2.880000000000e+04 4.000000000000e+00
27 19 12 29 10  0  0.0-1.649726182222e-04-1.148237060988e-11 0.000000000000e+00
    7.800000000000e+01 8.734375000000e+01 4.265891977238e-09-4.342228922464e-01
    4.617497324944e-06 7.557864533737e-03 3.166496753693e-06 5.153659379959e+03
    3.600000000000e+04 1.154839992523e-07-1.632627590772e+00 5.587935447693e-08
    9.782510125841e-01 3.283750000000e+02 4.970341328610e-01-8.254272395006e-09
    2.657253542419e-10 1.000000000000e+00 2.086000000000e+03 0.000000000000e+00
    2.400000000000e+00 0.000000000000e+00 1.862645149231e-09 7.800000000000e+01
    2.880000000000e+04 4.000000000000e+00
15 19 12 29 10  0  0.0-2.623503096402e-04 2.614797267597e-12 0.000000000000e+00
    9.200000000000e+01 1.796875000000e+01 5.385581473943e-09-1.330602279692e+00
    1.007691025734e-06 1.210670161527e-02 7.171183824539e-06 5.153611053467e+03
    3.600000000000e+04 2.793967723846e-07 1.409954429279e+00 4.842877388000e-08
    9.276440475495e-01 2.218437500000e+02 8.547351977575e-01-8.333561411997e-09
    3.653723620826e-10 1.000000000000e+00 2.086000000000e+03 0.000000000000e+00
    2.400000000000e+00 0.000000000000e+00-1.117587089539e-08 9.200000000000e+01
    2.880000000000e+04 4.000000000000e+00
21 19 12 29 10  0  0.0-6.371829658747e-05 5.684341886081e-12 0.000000000000e+00
    6.300000000000e+01-8.606250000000e+01 4.771984486594e-09 1.804636796332e+00
   -4.868954420090e-06 2.473585878033e-02 1.855194568634e-06 5.153595382690e+03
    3.600000000000e+04 4.693865776062e-07-6.469135966965e-01-2.961605787277e-07
    9.514083734748e-01 3.375000000000e+02-1.385201189750e+00-8.147839390215e-09
   -1.875078104529e-10 1.000000000000e+00 2.086000000000e+03 0.000000000000e+00
    2.400000000000e+00 0.000000000000e+00-1.024454832077e-08 6.300000000000e+01
    2.880000000000e+04 4.000000000000e+00
19 19 12 29 10  0  0.0-2.198214642704e-04 5.115907697473e-12 0.000000000000e+00
    9.900000000000e+01 7.543750000000e+01 4.176959701423e-09 2.191128239709e+00
    3.779307007790e-06 9.167674579658e-03 3.054738044739e-06 5.153664955139e+03
    3.600000000000e+04 7.078051567078e-08-1.529230198416e+00-1.043081283569e-07
    9.820106930299e-01 3.301250000000e+02 1.543493270793e+00-7.948545374534e-09
    2.189376910622e-10 1.000000000000e+00 2.086000000000e+03 0.000000000000e+00
    3.400000000000e+00 0.000000000000e+00-1.536682248116e-08 9.900000000000e+01
    2.880000000000e+04 4.000000000000e+00
29 19 12 29 10  0  0.0 6.221234798431e-06-9.663381206337e-12 0.000000000000e+00
    7.700000000000e+01 7.650000000000e+01 4.068383750228e-09-2.275854502247e-01
    3.788620233536e-06 1.029684091918e-03 3.043562173843e-06 5.153649284363e+03
    3.600000000000e+04 1.117587089539e-08-1.563619743701e+00 3.352761268616e-08
    9.855475608118e-01 3.329375000000e+02 1.999942859659e+00-8.067836057755e-09
    2.492960984689e-10 1.000000000000e+00 2.086000000000e+03 0.000000000000e+00
    2.400000000000e+00 0.000000000000e+00-9.778887033463e-09 7.700000000000e+01
    2.880000000000e+04 4.000000000000e+00
32 19 12 29 10  0  0.0 1.695686951280e-04 1.102762325900e-11 0.000000000000e+00
    6.100000000000e+01 1.975000000000e+01 4.907704425588e-09 3.414595859966e-01
    1.035630702972e-06 3.378003137186e-03 6.960704922676e-06 5.153657804489e+03
    3.600000000000e+04 1.303851604462e-08 1.503292738405e+00 7.636845111847e-08
    9.562708937325e-01 2.432812500000e+02-2.551043258494e+00-8.174626220280e-09
    3.185846989029e-10 1.000000000000e+00 2.086000000000e+03 0.000000000000e+00
    2.400000000000e+00 0.000000000000e+00 4.656612873077e-10 6.100000000000e+01
    2.880000000000e+04 4.000000000000e+00
20 19 12 29 10  0  0.0 5.277250893414e-04 0.000000000000e+00 0.000000000000e+00
    5.900000000000e+01-8.353125000000e+01 4.948063249553e-09-3.089862860893e+00
   -4.259869456291e-06 5.097432411276e-03 1.001544296741e-05 5.153629417419e+03
    3.600000000000e+04-6.519258022308e-08 3.351992943275e-01 8.195638656616e-08
    9.328857459330e-01 1.713125000000e+02 2.540564965848e+00-8.083908155794e-09
    1.171477368163e-10 1.000000000000e+00 2.086000000000e+03 0.000000000000e+00
    2.400000000000e+00 0.000000000000e+00-8.381903171539e-09 5.900000000000e+01
    2.880000000000e+04 4.000000000000e+00
18 19 12 29 10  0  0.0 1.098909415305e-04 2.501110429876e-12 0.000000000000e+00
    8.400000000000e+01-8.762500000000e+01 4.786270795962e-09-2.926132515016e+00
   -4.503875970840e-06 1.563772861846e-02 2.047047019005e-06 5.153656784058e+03
    3.600000000000e+04 2.458691596985e-07-6.365947665101e-01 2.235174179077e-08
    9.570429838589e-01 3.362812500000e+02 1.449639474686e+00-8.197841473003e-09
   -9.643258823294e-11 1.000000000000e+00 2.086000000000e+03 0.000000000000e+00
    2.400000000000e+00 6.300000000000e+01-5.587935447693e-09 8.400000000000e+01
    2.880000000000e+04 4.000000000000e+00
 4 19 12 29 10  0  0.0-2.680160105228e-05-5.115907697473e-12 0.000000000000e+00
    1.490000000000e+02 1.281250000000e+01 4.692695469602e-09-1.348851969144e+00
    5.885958671570e-07 4.365798085928e-04 7.310882210732e-06 5.153726543427e+03
    3.600000000000e+04 2.421438694000e-08 1.542329096678e+00-2.607703208923e-08
    9.594081976253e-01 2.380312500000e+02-2.709482165311e+00-7.958188633357e-09
    3.221562762449e-10 1.000000000000e+00 2.086000000000e+03 0.000000000000e+00
    2.400000000000e+00 6.300000000000e+01-4.190951585770e-09 9.170000000000e+02
    2.892000000000e+04 4.000000000000e+00
14 19 12 29  9 59 44.0-4.201568663120e-05 2.273736754432e-12 0.000000000000e+00
    5.800000000000e+01 1.690625000000e+01 4.913061791601e-09-7.441745377880e-01
    9.350478649139e-07 1.076034596190e-02 6.703659892082e-06 5.153593130112e+03
    3.598400000000e+04-8.940696716309e-08 1.590275268274e+00 1.806765794754e-07
    9.599305105817e-01 2.521250000000e+02-1.931740114924e+00-8.297488480843e-09
    2.714398779890e-10 1.000000000000e+00 2.086000000000e+03 0.000000000000e+00
    2.400000000000e+00 0.000000000000e+00-9.778887033463e-09 5.800000000000e+01
    3.570000000000e+04 4.000000000000e+00
19 19 12 29  9 59 44.0-2.198214642704e-04 5.115907697473e-12 0.000000000000e+00
    6.000000000000e+01 7.543750000000e+01 4.176959701423e-09 2.188794499162e+00
    3.779307007790e-06 9.167674230412e-03 3.054738044739e-06 5.153664945602e+03
    3.598400000000e+04 7.078051567078e-08-1.529230057976e+00-1.043081283569e-07
    9.820106871782e-01 3.301250000000e+02 1.543493326384e+00-7.948902532268e-09
    2.185805333280e-10 1.000000000000e+00 2.086000000000e+03 0.000000000000e+00
    2.400000000000e+00 0.000000000000e+00-1.536682248116e-08 6.000000000000e+01
    3.576000000000e+04 4.000000000000e+00
14 19 12 29 11 59 44.0-4.199938848615e-05 2.273736754432e-12 0.000000000000e+00
    5.900000000000e+01 2.200000000000e+01 4.899846955436e-09 3.060715084212e-01
    1.210719347000e-06 1.076116994955e-02 6.869435310364e-06 5.153594741821e+03
    4.318400000000e+04-1.434236764908e-07 1.590215483201e+00 7.636845111847e-08
    9.599324211527e-01 2.493125000000e+02-1.931753665934e+00-8.309631843806e-09
    2.385813664430e-10 1.000000000000e+00 2.086000000000e+03 0.000000000000e+00
    2.400000000000e+00 0.000000000000e+00-9.778887033463e-09 5.900000000000e+01
    3.600000000000e+04 4.000000000000e+00
19 19 12 29 11 59 44.0-2.197842113674e-04 5.115907697473e-12 0.000000000000e+00
    6.100000000000e+01 8.575000000000e+01 4.139100981598e-09-3.044299142090e+00
    4.259869456291e-06 9.166734409519e-03 3.039836883545e-06 5.153667181015e+03
    4.318400000000e+04 1.583248376846e-07-1.529287800815e+00-1.303851604462e-08
    9.820123900149e-01 3.290937500000e+02 1.543584404738e+00-7.977475151004e-09
    3.035840740667e-10 1.000000000000e+00 2.086000000000e+03 0.000000000000e+00
    2.400000000000e+00 0.000000000000e+00-1.536682248116e-08 6.100000000000e+01
    3.600000000000e+04 4.000000000000e+00
